#aV2019  9 13  0  0  0.00000000     288 DD+AD WGS84 FIT  NGA
## 2070 432000.00000000   300.00000000 58739 0.0000000000000
+   31     1  2  3  5  6  7  8  9 10 11 12 13 14 15 16 17 18
+         19 20 21 22 23 24 25 26 27 28 29 30 31 32  0  0  0
+          0  0  0  0  0  0  0  0  0  0  0  0  0  0  0  0  0
+          0  0  0  0  0  0  0  0  0  0  0  0  0  0  0  0  0
+          0  0  0  0  0  0  0  0  0  0  0  0  0  0  0  0  0
++         2  2  2  2  2  2  2  2  2  2  2  2  2  2  2  2  2
++         2  2  2  2  2  2  2  2  2  2  2  2  2  2  0  0  0
++         0  0  0  0  0  0  0  0  0  0  0  0  0  0  0  0  0
++         0  0  0  0  0  0  0  0  0  0  0  0  0  0  0  0  0
++         0  0  0  0  0  0  0  0  0  0  0  0  0  0  0  0  0
%c cc cc ccc ccc cccc cccc cccc cccc ccccc ccccc ccccc ccccc
%c cc cc ccc ccc cccc cccc cccc cccc ccccc ccccc ccccc ccccc
%f  0.0000000  0.000000000  0.00000000000  0.000000000000000
%f  0.0000000  0.000000000  0.00000000000  0.000000000000000
%i    0    0    0    0      0      0      0      0         0
%i    0    0    0    0      0      0      0      0         0
/*      NGA, ST. LOUIS,MO.                                  
/*   EPHEMERIS COMPUTED FROM 2 DAYS OF DATA                 
/*   EPOCHA v5 SMOOTHER                                     
/*   G1762 IERS2010 SATAF SATAPC                            
*  2019  9 13  9 45  0.00000000
P  1  13961.892559 -20373.914052   9127.423828   -127.317668                    
V  1  -1824.419219  12056.304067  29368.798531     -0.124608                    
P  2 -15618.108439   1136.277783 -20819.714398   -304.049096                    
V  2   6921.769249 -27060.791301  -6610.230724     -0.081609                    
P  3  18270.669888 -13218.460812 -14016.374354    -10.522235                    
V  3  17829.636537  -1076.097546  24437.643970     -0.039204                    
P  5 -26199.546345   2161.035385  -4629.412297     -1.377994                    
V  5   4965.786598  -3996.206815 -30672.501770     -0.003236                    
P  6  -8958.434370 -15053.348563 -19915.749927    -55.946492                    
V  6   9404.603435 -23554.511203  13571.689691     -0.124095                    
P  7   4998.525530 -25228.028167   5799.920413   -105.390502                    
V  7   5553.241182  -5527.793784 -30757.568928     -0.079618                    
P  8  15219.031218  -4757.448040  21306.304671     -6.297615                    
V  8  17348.214766  20580.421698  -7605.540263     -0.013537                    
P  9  -2746.320897 -20774.669626 -16358.603323    -30.107176                    
V  9  15158.568122  14259.048938 -20716.598401     -0.095056                    
P 10  11330.810287  12476.797033  20639.588342    -51.877210                    
V 10 -25426.695899   5513.410875  10448.576055     -0.152340                    
P 11   9977.788529 -18894.899474  15430.660665   -508.389791                    
V 11   5139.986038  20143.960276  20351.657364      0.108265                    
P 12 -21781.212284  10111.025083 -11378.135616    204.474279                    
V 12 -14274.627917   -318.516455  27716.387884     -0.037982                    
P 13 -18653.812085  -6093.789561  17815.130555    -44.593762                    
V 13 -11263.646633 -19884.584141 -18415.833053      0.020659                    
P 14  18600.142190  17758.081304  -6689.426895    -61.579550                    
V 14   3099.766700   8717.221834  30101.770528      0.020075                    
P 15 -14859.580327   7087.299164  20618.791776   -287.304005                    
V 15 -18859.049015 -19176.594544  -6517.390373      0.027289                    
P 16  26159.316389   1436.674171  -5794.593618    -73.695732                    
V 16  -6822.440473   2338.253889 -30820.899822     -0.034646                    
P 17 -14942.885937 -21947.074881   2092.946430    124.683051                    
V 17   2861.208709    511.383223  32074.531763      0.071128                    
P 18  15741.441090 -13923.997253  15672.695270     85.350244                    
V 18  -3822.498226  20661.763226  21610.090834      0.028928                    
P 19 -17672.463041 -19098.147900  -5538.967066   -267.886468                    
V 19  -2083.900075  -6627.522263  31223.415684      0.051637                    
P 20   1041.633018  16048.024271  21014.869193    526.849350                    
V 20 -26003.114514   7531.016655  -4615.866888      0.001460                    
P 21    309.327212  24971.402761  10095.313924   -119.653300                    
V 21  -5633.735768  10503.437813 -27843.181451      0.064804                    
P 22  23031.129614 -11195.645247  -6644.630988   -754.350641                    
V 22   9452.823071   1406.088280  29513.371622     -0.038272                    
P 23   8449.417085 -13357.225976 -20958.410618   -167.127428                    
V 23  18854.144941  20074.649946  -5495.630703      0.020539                    
P 24 -14357.053302  18875.297077  11442.496070     -2.103564                    
V 24   1088.429939 -15271.034585  26526.846025     -0.004287                    
P 25  -8761.350976  15450.232797 -19877.480582    -11.976500                    
V 25 -24652.243184   3237.532143  13773.592249     -0.015403                    
P 26  21438.350102   6124.707794 -14588.187117     37.880863                    
V 26 -17593.519282   5978.479447 -23185.657263      0.088155                    
P 27  20338.110759   8187.321806  15091.012711    -54.153430                    
V 27  11353.816113  15562.479052 -23275.062107     -0.121398                    
P 28 -10313.000486 -13284.073106  21140.075560    762.319955                    
V 28  25272.560995  -2941.240390  10895.849034     -0.010217                    
P 29   -558.178573  19403.800912 -18152.539979     99.097261                    
V 29 -14600.920434 -17714.034126 -18543.680786     -0.101911                    
P 30  -3096.444159 -21637.069327  14987.017811    -39.755967                    
V 30   9556.902604 -16751.766160 -22453.468141     -0.079471                    
P 31  10403.133648  13062.382657 -20558.010570     10.694033                    
V 31 -10554.194537  24014.307023  10362.581217     -0.025948                    
P 32  16287.906934  20980.291904   1964.109343     55.186484                    
V 32  -3706.265170     14.892484  31463.785938      0.137350                    
EOF
